OBJECT_NAME,OBJECT_ID,EPOCH,MEAN_MOTION,ECCENTRICITY,INCLINATION,RA_OF_ASC_NODE,ARG_OF_PERICENTER,MEAN_ANOMALY,EPHEMERIS_TYPE,CLASSIFICATION_TYPE,NORAD_CAT_ID,ELEMENT_SET_NO,REV_AT_EPOCH,BSTAR,MEAN_MOTION_DOT,MEAN_MOTION_DDOT
STARLINK-35953,2025-271W,2026-07-03T17:57:51.244128,15.34423038,.00017643,53.1593,318.1710,83.4928,276.6276,0,U,66637,999,3537,.81581631E-3,.27308E-3,0
STARLINK-35972,2025-271X,2026-07-04T02:01:42.253248,15.30223101,.00015311,53.1601,319.5458,82.5792,277.5382,0,U,66638,999,3538,.11752917E-2,.34637E-3,0
STARLINK-35908,2025-271Y,2026-07-04T01:37:24.810528,15.30204590,.00013052,53.1607,319.4392,94.5866,265.5284,0,U,66639,999,3538,.16250497E-2,.48089E-3,0
STARLINK-35921,2025-271Z,2026-07-04T02:21:17.436672,15.30229254,.00008373,53.1613,318.9202,108.5637,251.5455,0,U,66640,999,3539,.88817561E-3,.26062E-3,0
STARLINK-35923,2025-271AA,2026-06-30T22:59:17.718144,15.30222794,.00010149,53.1611,334.1562,78.5112,281.6003,0,U,66641,999,3490,.66126976E-3,.1929E-3,0
STARLINK-35926,2025-271AB,2026-07-04T01:57:08.639136,15.30220048,.00014096,53.1583,319.5225,90.3826,269.7336,0,U,66642,999,3534,.10364678E-2,.30483E-3,0
STARLINK-35918,2025-271AC,2026-07-04T01:28:38.898912,15.34382472,.00013917,53.1583,316.5684,89.6539,270.4623,0,U,66643,999,3542,.21811235E-2,.74005E-3,0
STARLINK-35938,2025-271AD,2026-07-04T02:09:17.200224,15.30237529,.00010862,53.1616,319.5753,92.9171,267.1954,0,U,66644,999,3538,.10148606E-2,.29854E-3,0
STARLINK-35867,2025-278A,2026-07-04T06:27:36.887616,15.27574428,.00016854,43.0003,176.4064,271.6623,88.4035,0,U,66791,999,3303,.94593036E-3,.25855E-3,0
STARLINK-35990,2025-278B,2026-07-04T06:51:29.582784,15.27585129,.00022504,43.0069,175.6683,296.9549,63.1073,0,U,66792,999,3304,.13449774E-2,.36941E-3,0
STARLINK-36051,2025-278C,2026-07-04T05:56:09.880512,15.27610142,.00009639,42.9970,176.2377,284.8904,75.1841,0,U,66793,999,3303,.94373556E-3,.25822E-3,0
STARLINK-36062,2025-278D,2026-07-03T11:15:32.472576,15.27612047,.00022504,43.0000,180.7179,289.4387,70.6221,0,U,66794,999,3291,.64243619E-3,.17476E-3,0
STARLINK-36047,2025-278E,2026-07-04T05:54:18.320832,15.27584164,.0002021,43.0011,176.2318,284.0168,76.0459,0,U,66795,999,3303,.35239972E-3,.9449E-4,0
STARLINK-35964,2025-278F,2026-07-03T23:42:01.870560,15.27608741,.00004604,42.9947,162.6830,182.8883,177.1966,0,U,66796,999,3316,.66175078E-3,.18008E-3,0
STARLINK-36099,2025-278G,2026-07-04T01:00:44.777088,15.27583620,.00016309,43.0025,177.2798,265.1695,94.8970,0,U,66797,999,3300,.71119694E-3,.19362E-3,0
STARLINK-36041,2025-278H,2026-07-04T06:09:06.861888,15.27598291,.00014255,42.9996,176.3017,274.1457,85.9232,0,U,66798,999,3303,.7127181E-3,.19413E-3,0
STARLINK-36044,2025-278J,2026-07-04T06:47:45.707424,15.27597035,.00018828,43.0029,175.6430,281.2434,78.8206,0,U,66799,999,3304,.80574329E-3,.21988E-3,0
STARLINK-35996,2025-278K,2026-07-04T06:40:21.867168,15.27589950,.00008173,42.9985,175.6016,299.1422,60.9348,0,U,66800,999,3304,.78563793E-3,.21426E-3,0
STARLINK-36080,2025-278L,2026-07-04T06:25:46.124544,15.27598637,.00004609,43.0000,176.3893,268.8067,91.2732,0,U,66801,999,3303,.72631134E-3,.19789E-3,0
STARLINK-35604,2025-278M,2026-07-04T01:19:14.131488,15.27596947,.0001009,42.9982,177.3658,240.7119,119.3632,0,U,66802,999,3300,.11498617E-2,.31531E-3,0
STARLINK-35565,2025-278N,2026-07-04T01:28:30.029952,15.27597388,.00012039,43.0017,177.4259,248.9275,111.1448,0,U,66803,999,3300,.90084995E-3,.24623E-3,0
STARLINK-36038,2025-278P,2026-07-04T00:40:23.417184,15.27587463,.00013228,42.9995,177.1749,258.2473,101.8230,0,U,66804,999,3300,.64537551E-3,.17544E-3,0
STARLINK-36049,2025-278Q,2026-07-04T06:14:40.306272,15.27594514,.00013698,43.0002,176.3349,273.5627,86.5068,0,U,66805,999,3303,.81191069E-3,.22157E-3,0
STARLINK-36069,2025-278R,2026-07-04T06:20:12.025248,15.27681331,.00012797,42.9957,176.3623,115.0849,245.0136,0,U,66806,999,3303,.21270054E-2,.5892E-3,0
STARLINK-36000,2025-278S,2026-07-04T00:45:56.801952,15.27587942,.00010921,43.0001,177.2026,264.7571,95.3156,0,U,66807,999,3300,.73043843E-3,.19897E-3,0
STARLINK-36071,2025-278T,2026-07-04T06:31:08.218560,15.27597147,.00017533,43.0018,175.5518,278.0566,82.0087,0,U,66808,999,3304,.98978014E-3,.27089E-3,0
STARLINK-35979,2025-278U,2026-07-04T06:22:05.863296,15.27588257,.00015201,42.9989,176.3646,277.4315,82.6364,0,U,66809,999,3303,.11004796E-2,.30152E-3,0
STARLINK-36046,2025-278V,2026-07-04T05:59:52.046880,15.27591301,.00017785,43.0014,176.2556,281.2277,78.8375,0,U,66810,999,3303,.88369454E-3,.24143E-3,0
STARLINK-36045,2025-278W,2026-07-04T05:48:45.775872,15.27594365,.00020686,43.0025,176.1959,276.1647,83.8969,0,U,66811,999,3303,.6276411E-3,.17057E-3,0
STARLINK-36054,2025-278X,2026-07-04T05:45:03.632832,15.27620088,.00010947,42.9982,176.1760,279.7854,80.2874,0,U,66812,999,3303,.11507823E-2,.31579E-3,0
