STARLINK-35953          
1 66637U 25271W   26184.74850977  .00027308  00000+0  81582-3 0  9999
2 66637  53.1593 318.1710 0001764  83.4928 276.6276 15.34423038 35376
STARLINK-35972          
1 66638U 25271X   26185.08451682  .00034637  00000+0  11753-2 0  9993
2 66638  53.1601 319.5458 0001531  82.5792 277.5382 15.30223101 35386
STARLINK-35908          
1 66639U 25271Y   26185.06764827  .00048089  00000+0  16250-2 0  9993
2 66639  53.1607 319.4392 0001305  94.5866 265.5284 15.30204590 35382
STARLINK-35921          
1 66640U 25271Z   26185.09811848  .00026062  00000+0  88818-3 0  9991
2 66640  53.1613 318.9202 0000837 108.5637 251.5455 15.30229254 35396
STARLINK-35923          
1 66641U 25271AA  26181.95784396  .00019290  00000+0  66127-3 0  9994
2 66641  53.1611 334.1562 0001014  78.5112 281.6003 15.30222794 34907
STARLINK-35926          
1 66642U 25271AB  26185.08134999  .00030483  00000+0  10365-2 0  9990
2 66642  53.1583 319.5225 0001409  90.3826 269.7336 15.30220048 35346
STARLINK-35918          
1 66643U 25271AC  26185.06156133  .00074005  00000+0  21811-2 0  9999
2 66643  53.1583 316.5684 0001391  89.6539 270.4623 15.34382472 35426
STARLINK-35938          
1 66644U 25271AD  26185.08978241  .00029854  00000+0  10149-2 0  9998
2 66644  53.1616 319.5753 0001086  92.9171 267.1954 15.30237529 35387
STARLINK-35867          
1 66791U 25278A   26185.26917694  .00025855  00000+0  94593-3 0  9996
2 66791  43.0003 176.4064 0001685 271.6623  88.4035 15.27574428 33038
STARLINK-35990          
1 66792U 25278B   26185.28575906  .00036941  00000+0  13450-2 0  9995
2 66792  43.0069 175.6683 0002250 296.9549  63.1073 15.27585129 33048
STARLINK-36051          
1 66793U 25278C   26185.24733658  .00025822  00000+0  94374-3 0  9993
2 66793  42.9970 176.2377 0000963 284.8904  75.1841 15.27610142 33034
STARLINK-36062          
1 66794U 25278D   26184.46912584  .00017476  00000+0  64244-3 0  9993
2 66794  43.0000 180.7179 0002250 289.4387  70.6221 15.27612047 32912
STARLINK-36047          
1 66795U 25278E   26185.24604538  .00009449  00000+0  35240-3 0  9993
2 66795  43.0011 176.2318 0002021 284.0168  76.0459 15.27584164 33039
STARLINK-35964          
1 66796U 25278F   26184.98752165  .00018008  00000+0  66175-3 0  9996
2 66796  42.9947 162.6830 0000460 182.8883 177.1966 15.27608741 33166
STARLINK-36099          
1 66797U 25278G   26185.04218492  .00019362  00000+0  71120-3 0  9995
2 66797  43.0025 177.2798 0001630 265.1695  94.8970 15.27583620 33008
STARLINK-36041          
1 66798U 25278H   26185.25632942  .00019413  00000+0  71272-3 0  9994
2 66798  42.9996 176.3017 0001425 274.1457  85.9232 15.27598291 33031
STARLINK-36044          
1 66799U 25278J   26185.28316791  .00021988  00000+0  80574-3 0  9994
2 66799  43.0029 175.6430 0001882 281.2434  78.8206 15.27597035 33041
STARLINK-35996          
1 66800U 25278K   26185.27803087  .00021426  00000+0  78564-3 0  9998
2 66800  42.9985 175.6016 0000817 299.1422  60.9348 15.27589950 33041
STARLINK-36080          
1 66801U 25278L   26185.26789496  .00019789  00000+0  72631-3 0  9993
2 66801  43.0000 176.3893 0000460 268.8067  91.2732 15.27598637 33030
STARLINK-35604          
1 66802U 25278M   26185.05502467  .00031531  00000+0  11499-2 0  9995
2 66802  42.9982 177.3658 0001009 240.7119 119.3632 15.27596947 33005
STARLINK-35565          
1 66803U 25278N   26185.06145868  .00024623  00000+0  90085-3 0  9998
2 66803  43.0017 177.4259 0001203 248.9275 111.1448 15.27597388 33009
STARLINK-36038          
1 66804U 25278P   26185.02804881  .00017544  00000+0  64538-3 0  9990
2 66804  42.9995 177.1749 0001322 258.2473 101.8230 15.27587463 33008
STARLINK-36049          
1 66805U 25278Q   26185.26018873  .00022157  00000+0  81191-3 0  9995
2 66805  43.0002 176.3349 0001369 273.5627  86.5068 15.27594514 33035
STARLINK-36069          
1 66806U 25278R   26185.26402807  .00058920  00000+0  21270-2 0  9998
2 66806  42.9957 176.3623 0001279 115.0849 245.0136 15.27681331 33036
STARLINK-36000          
1 66807U 25278S   26185.03190743  .00019897  00000+0  73044-3 0  9994
2 66807  43.0001 177.2026 0001092 264.7571  95.3156 15.27587942 33001
STARLINK-36071          
1 66808U 25278T   26185.27162290  .00027089  00000+0  98978-3 0  9992
2 66808  43.0018 175.5518 0001753 278.0566  82.0087 15.27597147 33041
STARLINK-35979          
1 66809U 25278U   26185.26534564  .00030152  00000+0  11005-2 0  9999
2 66809  42.9989 176.3646 0001520 277.4315  82.6364 15.27588257 33030
STARLINK-36046          
1 66810U 25278V   26185.24990795  .00024143  00000+0  88369-3 0  9992
2 66810  43.0014 176.2556 0001778 281.2277  78.8375 15.27591301 33030
STARLINK-36045          
1 66811U 25278W   26185.24219648  .00017057  00000+0  62764-3 0  9991
2 66811  43.0025 176.1959 0002068 276.1647  83.8969 15.27594365 33034
STARLINK-36054          
1 66812U 25278X   26185.23962538  .00031579  00000+0  11508-2 0  9998
2 66812  42.9982 176.1760 0001094 279.7854  80.2874 15.27620088 33030
